ONEWEB-0555             
1 56057U 23043M   25194.56480409  .00000104  00000+0  23785-3 0  9994
2 56057  87.9058 296.2633 0001398 102.4106 257.7181 13.16594781114404
ONEWEB-0557             
1 56058U 23043N   25194.27505713  .00000117  00000+0  27238-3 0  9990
2 56058  87.9053 296.3429 0001676 142.1273 217.9976 13.16595847114368
ONEWEB-0558             
1 56059U 23043P   25194.62552182  .00000046  00000+0  80276-4 0  9995
2 56059  87.9281 311.5226 0002326  91.3112 268.8288 13.21824527113510
ONEWEB-0559             
1 56060U 23043Q   25194.61449645 -.00000008  00000+0 -51245-4 0  9999
2 56060  87.9281 311.5166 0002382 100.6089 259.5313 13.21826109113529
ONEWEB-0566             
1 56061U 23043R   25194.30540556  .00000028  00000+0  37130-4 0  9996
2 56061  87.9272 311.5767 0002275  96.4584 263.6809 13.21825706113461
ONEWEB-0568             
1 56062U 23043S   25194.52048022  .00000098  00000+0  22256-3 0  9991
2 56062  87.9070 296.2667 0001684  99.3653 260.7668 13.16594589114411
ONEWEB-0574             
1 56063U 23043T   25194.60188015  .00000090  00000+0  18716-3 0  9996
2 56063  87.9274 311.5056 0001937 106.0147 254.1200 13.21825721114450
ONEWEB-0575             
1 56064U 23043U   25194.51414878  .00000091  00000+0  20316-3 0  9996
2 56064  87.9062 296.2764 0001792 113.5461 246.5858 13.16594295114404
ONEWEB-0576             
1 56065U 23043V   25194.72312840  .00000063  00000+0  13145-3 0  9997
2 56065  87.9057 296.2253 0001763 102.5039 257.6289 13.16595315115337
ONEWEB-0577             
1 56066U 23043W   25194.57746806  .00000180  00000+0  43754-3 0  9993
2 56066  87.9064 296.2537 0001837 120.8959 239.2353 13.16593825114439
ONEWEB-0578             
1 56067U 23043X   25194.58926324  .00000096  00000+0  19987-3 0  9997
2 56067  87.9275 311.5194 0001878  99.8950 260.2396 13.21827201114418
ONEWEB-0579             
1 56068U 23043Y   25194.35270701  .00000127  00000+0  27512-3 0  9992
2 56068  87.9272 311.5517 0002241 101.6505 258.4880 13.21824588113486
ONEWEB-0581             
1 56069U 23043Z   25194.58381161  .00000213  00000+0  52223-3 0  9994
2 56069  87.9052 296.2811 0002116 113.6183 246.5170 13.16594688114407
ONEWEB-0609             
1 56070U 23043AA  25194.42442618  .00000086  00000+0  19528-3 0  9993
2 56070  87.9074 326.7603 0001939  95.1615 264.9736 13.15548942111890
ONEWEB-0613             
1 56071U 23043AB  25194.64784574  .00000036  00000+0  61054-4 0  9995
2 56071  87.9079 326.7276 0002138  99.1727 260.9646 13.15548346111920
ONEWEB-0630             
1 56072U 23043AC  25194.79519686 -.00000020  00000+0 -88243-4 0  9996
2 56072  87.9073 326.6750 0002204  96.1857 263.9525 13.15549014112840
ONEWEB-0632             
1 56073U 23043AD  25194.63833112 -.00000031  00000+0 -11695-3 0  9991
2 56073  87.9076 326.7260 0001991 105.0169 255.1182 13.15548846111910
ONEWEB-0633             
1 56074U 23043AE  25194.63197795  .00000035  00000+0  58397-4 0  9995
2 56074  87.9071 326.6941 0002270  91.3749 268.7641 13.15550146111896
ONEWEB-0634             
1 56075U 23043AF  25194.76984529 -.00000131  00000+0 -38241-3 0  9993
2 56075  87.9080 326.7038 0001813  88.0861 272.0477 13.15548399112810
ONEWEB-0635             
1 56076U 23043AG  25194.76508702 -.00000094  00000+0 -28423-3 0  9998
2 56076  87.9052 326.6832 0001928 108.1001 252.0340 13.15549170112846
ONEWEB-0636             
1 56077U 23043AH  25194.60505306  .00000092  00000+0  21034-3 0  9996
2 56077  87.9061 326.7264 0001929 106.1641 253.9701 13.15548868111894
ONEWEB-0637             
1 56078U 23043AJ  25194.59870549  .00000117  00000+0  27803-3 0  9997
2 56078  87.9079 326.7360 0001580 104.5160 255.6145 13.15546814111915
ONEWEB-0647             
1 56079U 23043AK  25194.59396970  .00000140  00000+0  33714-3 0  9993
2 56079  87.9076 326.7461 0002048 102.4766 257.6594 13.15549265111906
ONEWEB-0651             
1 56080U 23043AL  25194.36104094  .00000167  00000+0  40936-3 0  9997
2 56080  87.9079 326.7811 0001762 107.4285 252.7038 13.15548375113073
ONEWEB-0718             
1 56081U 23043AM  25194.81263327  .00000142  00000+0  34279-3 0  9999
2 56081  87.9077 326.6745 0001745  85.3965 274.7364 13.15548996112857
ONEWEB-0561             
1 56710U 23068A   25194.86793848 -.00000015  00000+0 -67675-4 0  9994
2 56710  87.9269 341.8534 0002087 110.8607 249.2750 13.20770126105543
ONEWEB-0668             
1 56711U 23068B   25194.51017853  .00000221  00000+0  54396-3 0  9994
2 56711  87.9070 296.2598 0001584  88.3224 271.8088 13.16595149107218
ONEWEB-0676             
1 56712U 23068C   25194.56639816  .00000095  00000+0  21383-3 0  9998
2 56712  87.9058 296.2733 0002197 112.6655 247.4708 13.16594834107146
ONEWEB-0677             
1 56713U 23068D   25194.40236176 -.00000068  00000+0 -19863-3 0  9996
2 56713  87.9268 341.9232 0001684 103.6600 256.4721 13.20770655105080
ONEWEB-0678             
1 56714U 23068E   25194.78094232 -.00000117  00000+0 -34358-3 0  9994
2 56714  87.9080 326.6520 0002227  99.0888 261.0494 13.15548896105491
ONEWEB-0679             
1 56715U 23068F   25194.53551431  .00000010  00000+0 -73249-5 0  9992
2 56715  87.9060 296.2718 0001515 109.2911 250.8384 13.16594509107164
ONEWEB-0680             
1 56716U 23068G   25194.58294209  .00000108  00000+0  22882-3 0  9997
2 56716  87.9262 311.5098 0001377  89.4663 270.6629 13.21825210106365
ONEWEB-0681             
1 56717U 23068H   25194.59038546  .00000119  00000+0  25544-3 0  9999
2 56717  87.9270 311.5354 0002028 128.1707 231.9610 13.22338804106352
ONEWEB-0682             
1 56718U 23068J   25194.42678295  .00000099  00000+0  22782-3 0  9991
2 56718  87.9075 326.7523 0001370  93.7203 266.4084 13.15550621104912
ONEWEB-0683             
1 56719U 23068K   25194.60030156  .00000097  00000+0  22296-3 0  9998
2 56719  87.9079 326.6888 0001620  93.5579 266.5737 13.15549672104901
ONEWEB-0684             
1 56720U 23068L   25194.38005239  .00000003  00000+0 -25282-4 0  9996
2 56720  87.9050 326.7444 0003207  85.2678 274.8819 13.15548452104708
ONEWEB-0686             
1 56721U 23068M   25194.52522740  .00000093  00000+0  21086-3 0  9999
2 56721  87.9054 296.3079 0001940  91.5783 268.5570 13.16595017107154
ONEWEB-0694             
1 56722U 23068N   25194.56796769  .00000135  00000+0  32006-3 0  9999
2 56722  87.9065 296.2196 0001613  96.1908 263.9407 13.16595150107913
ONEWEB-0696             
1 56723U 23068P   25194.41332630  .00000009  00000+0 -99916-5 0  9993
2 56723  87.9075 326.7785 0002202  99.1430 260.9950 13.15548640104824
ONEWEB-0703             
1 56724U 23068Q   25194.42282252  .00000144  00000+0  34744-3 0  9994
2 56724  87.9058 326.7698 0002891 111.6260 248.5178 13.15550120104712
ONEWEB-0721             
1 56725U 23068R   25194.71280067  .00000076  00000+0  14853-3 0  9992
2 56725  86.6809 193.3811 0002020  88.1924 271.9441 13.22440119113905
ONEWEB-0015             
1 61594U 24188A   25194.62809094  .00000368  00000+0  10036-2 0  9995
2 61594  87.8852  88.5803 0001351  92.9995 267.1287 13.11417071 40081
ONEWEB-0687             
1 61595U 24188B   25194.63166368 -.00000010  00000+0 -59533-4 0  9990
2 61595  87.9056  73.3089 0001251  68.4443 291.6822 13.17807324 41316
ONEWEB-0688             
1 61596U 24188C   25194.88790224  .00000048  00000+0  89539-4 0  9990
2 61596  87.9051  73.2589 0000892 126.3686 233.7528 13.17641676 39413
ONEWEB-0689             
1 61597U 24188D   25194.43309963 -.00000570  00000+0 -16454-2 0  9994
2 61597  87.8791  88.5998 0001649  66.7056 293.4245 13.11417240 40059
ONEWEB-0690             
1 61598U 24188E   25194.44329454 -.00000108  00000+0 -34035-3 0  9996
2 61598  87.8846  88.5511 0002492  89.0056 271.1357 13.11418312 40235
ONEWEB-0691             
1 61599U 24188F   25194.43820046 -.00000224  00000+0 -66825-3 0  9990
2 61599  87.8751  88.5593 0001555  87.4668 272.6638 13.11418068 40080
ONEWEB-0692             
1 61600U 24188G   25194.45855889  .00000501  00000+0  13790-2 0  9996
2 61600  87.8823  88.6232 0002444  58.3477 301.7889 13.11417040 40077
ONEWEB-0693             
1 61601U 24188H   25194.36821277  .00000037  00000+0  61854-4 0  9991
2 61601  87.9053  73.3791 0002322  99.6597 260.4797 13.17647265 41262
ONEWEB-0695             
1 61602U 24188J   25194.43480851 -.00000440  00000+0 -12766-2 0  9995
2 61602  87.8829  88.6135 0001896  59.0672 301.0642 13.11418139 40061
ONEWEB-0697             
1 61603U 24188K   25194.46702711  .00000545  00000+0  15004-2 0  9993
2 61603  87.8806  88.6036 0002442  60.6131 299.5240 13.11417380 40054
ONEWEB-0698             
1 61604U 24188L   25194.44498488  .00000087  00000+0  20836-3 0  9996
2 61604  87.8820  88.6194 0002953  73.5308 286.6145 13.11419549 40074
ONEWEB-0699             
1 61605U 24188M   25194.49366644  .00000560  00000+0  15680-2 0  9996
2 61605  87.8818 103.8010 0001747  61.3911 298.7392 13.10374541 38957
ONEWEB-0700             
1 61606U 24188N   25194.49531453  .00000411  00000+0  11397-2 0  9995
2 61606  87.8770 103.7058 0001955  55.6376 304.4936 13.10374408 38948
ONEWEB-0701             
1 61607U 24188P   25194.51192141  .00000633  00000+0  17768-2 0  9990
2 61607  87.8816 103.8058 0002583  61.8937 298.2451 13.10371808 38955
ONEWEB-0702             
1 61608U 24188Q   25194.64334809 -.00000266  00000+0 -78722-3 0  9996
2 61608  87.8748  88.5465 0002291  54.1879 305.9461 13.11414321 40114
ONEWEB-0704             
1 61609U 24188R   25194.50029957  .00000578  00000+0  16200-2 0  9993
2 61609  87.8845 103.7442 0002347  51.4173 308.7164 13.10373874 38931
ONEWEB-0705             
1 61610U 24188S   25194.50527664  .00000702  00000+0  19738-2 0  9991
2 61610  87.8806 103.7912 0001364  36.4188 323.7032 13.10372832 31105
ONEWEB-0706             
1 61611U 24188T   25194.48932236 -.00002860  00000+0 -82858-2 0  9996
2 61611  87.8827 103.8191 0001935  56.6033 303.5279 13.09924557 39029
